CCSDS_OMM_VERS = 2.0
CREATION_DATE  = 
ORIGINATOR     = 

OBJECT_NAME    = STARLINK-36515
OBJECT_ID      = 2026-005AC
CENTER_NAME    = EARTH
REF_FRAME      = TEME
TIME_SYSTEM    = UTC
MEAN_ELEMENT_THEORY = SGP/SGP4

EPOCH          = 2026-01-25T22:00:01.999584
MEAN_MOTION    = 15.76479170
ECCENTRICITY   = .00012397
INCLINATION    = 43.0002
RA_OF_ASC_NODE = 125.1697
ARG_OF_PERICENTER = 280.1775
MEAN_ANOMALY   = 316.3073

EPHEMERIS_TYPE = 0
CLASSIFICATION_TYPE = U
NORAD_CAT_ID   = 67430
ELEMENT_SET_NO = 999
REV_AT_EPOCH   = 323
BSTAR          = -.10902522E-1
MEAN_MOTION_DOT = -.1560844E-1
MEAN_MOTION_DDOT = 0

CCSDS_OMM_VERS = 2.0
CREATION_DATE  = 
ORIGINATOR     = 

OBJECT_NAME    = STARLINK-36443
OBJECT_ID      = 2026-005AD
CENTER_NAME    = EARTH
REF_FRAME      = TEME
TIME_SYSTEM    = UTC
MEAN_ELEMENT_THEORY = SGP/SGP4

EPOCH          = 2026-01-25T22:00:01.999584
MEAN_MOTION    = 15.76342341
ECCENTRICITY   = .00013803
INCLINATION    = 43.0002
RA_OF_ASC_NODE = 125.1542
ARG_OF_PERICENTER = 280.7315
MEAN_ANOMALY   = 321.6568

EPHEMERIS_TYPE = 0
CLASSIFICATION_TYPE = U
NORAD_CAT_ID   = 67431
ELEMENT_SET_NO = 999
REV_AT_EPOCH   = 326
BSTAR          = -.10301046E-1
MEAN_MOTION_DOT = -.1477284E-1
MEAN_MOTION_DDOT = 0

CCSDS_OMM_VERS = 2.0
CREATION_DATE  = 
ORIGINATOR     = 

OBJECT_NAME    = STARLINK-36460
OBJECT_ID      = 2026-005AE
CENTER_NAME    = EARTH
REF_FRAME      = TEME
TIME_SYSTEM    = UTC
MEAN_ELEMENT_THEORY = SGP/SGP4

EPOCH          = 2026-01-25T22:00:01.999584
MEAN_MOTION    = 15.76388522
ECCENTRICITY   = .00013293
INCLINATION    = 43.0001
RA_OF_ASC_NODE = 125.1495
ARG_OF_PERICENTER = 273.6693
MEAN_ANOMALY   = 330.6469

EPHEMERIS_TYPE = 0
CLASSIFICATION_TYPE = U
NORAD_CAT_ID   = 67432
ELEMENT_SET_NO = 999
REV_AT_EPOCH   = 331
BSTAR          = -.11329245E-1
MEAN_MOTION_DOT = -.1640424E-1
MEAN_MOTION_DDOT = 0

CCSDS_OMM_VERS = 2.0
CREATION_DATE  = 
ORIGINATOR     = 

OBJECT_NAME    = YAOGAN-50 01
OBJECT_ID      = 2026-006A
CENTER_NAME    = EARTH
REF_FRAME      = TEME
TIME_SYSTEM    = UTC
MEAN_ELEMENT_THEORY = SGP/SGP4

EPOCH          = 2026-01-25T22:56:44.658816
MEAN_MOTION    = 13.83250638
ECCENTRICITY   = .00006934
INCLINATION    = 142.0305
RA_OF_ASC_NODE = 248.4408
ARG_OF_PERICENTER = 272.3103
MEAN_ANOMALY   = 87.7537

EPHEMERIS_TYPE = 0
CLASSIFICATION_TYPE = U
NORAD_CAT_ID   = 67433
ELEMENT_SET_NO = 999
REV_AT_EPOCH   = 173
BSTAR          = .18774431E-3
MEAN_MOTION_DOT = .396E-5
MEAN_MOTION_DDOT = 0

CCSDS_OMM_VERS = 2.0
CREATION_DATE  = 
ORIGINATOR     = 

OBJECT_NAME    = CZ-6A R/B
OBJECT_ID      = 2026-006B
CENTER_NAME    = EARTH
REF_FRAME      = TEME
TIME_SYSTEM    = UTC
MEAN_ELEMENT_THEORY = SGP/SGP4

EPOCH          = 2026-01-25T14:23:41.596800
MEAN_MOTION    = 14.62271920
ECCENTRICITY   = .0202424
INCLINATION    = 142.0433
RA_OF_ASC_NODE = 253.5760
ARG_OF_PERICENTER = 169.8106
MEAN_ANOMALY   = 190.6801

EPHEMERIS_TYPE = 0
CLASSIFICATION_TYPE = U
NORAD_CAT_ID   = 67434
ELEMENT_SET_NO = 999
REV_AT_EPOCH   = 176
BSTAR          = .20725E-3
MEAN_MOTION_DOT = .1754E-4
MEAN_MOTION_DDOT = 0

CCSDS_OMM_VERS = 2.0
CREATION_DATE  = 
ORIGINATOR     = 

OBJECT_NAME    = HULIANWANG DIGUI-137
OBJECT_ID      = 2026-007A
CENTER_NAME    = EARTH
REF_FRAME      = TEME
TIME_SYSTEM    = UTC
MEAN_ELEMENT_THEORY = SGP/SGP4

EPOCH          = 2026-01-25T18:06:51.422976
MEAN_MOTION    = 13.88520819
ECCENTRICITY   = .0001349
INCLINATION    = 50.0118
RA_OF_ASC_NODE = 246.1588
ARG_OF_PERICENTER = 228.2080
MEAN_ANOMALY   = 131.8703

EPHEMERIS_TYPE = 0
CLASSIFICATION_TYPE = U
NORAD_CAT_ID   = 67435
ELEMENT_SET_NO = 999
REV_AT_EPOCH   = 169
BSTAR          = .20066929E-3
MEAN_MOTION_DOT = .97E-6
MEAN_MOTION_DDOT = 0

CCSDS_OMM_VERS = 2.0
CREATION_DATE  = 
ORIGINATOR     = 

OBJECT_NAME    = HULIANWANG DIGUI-138
OBJECT_ID      = 2026-007B
CENTER_NAME    = EARTH
REF_FRAME      = TEME
TIME_SYSTEM    = UTC
MEAN_ELEMENT_THEORY = SGP/SGP4

EPOCH          = 2026-01-25T23:21:06.432768
MEAN_MOTION    = 13.87767768
ECCENTRICITY   = .00028718
INCLINATION    = 50.0120
RA_OF_ASC_NODE = 245.3067
ARG_OF_PERICENTER = 202.8451
MEAN_ANOMALY   = 157.2320

EPHEMERIS_TYPE = 0
CLASSIFICATION_TYPE = U
NORAD_CAT_ID   = 67436
ELEMENT_SET_NO = 999
REV_AT_EPOCH   = 172
BSTAR          = .20426384E-3
MEAN_MOTION_DOT = .98E-6
MEAN_MOTION_DDOT = 0

CCSDS_OMM_VERS = 2.0
CREATION_DATE  = 
ORIGINATOR     = 

OBJECT_NAME    = HULIANWANG DIGUI-139
OBJECT_ID      = 2026-007C
CENTER_NAME    = EARTH
REF_FRAME      = TEME
TIME_SYSTEM    = UTC
MEAN_ELEMENT_THEORY = SGP/SGP4

EPOCH          = 2026-01-25T21:35:37.952448
MEAN_MOTION    = 13.88233005
ECCENTRICITY   = .00005657
INCLINATION    = 50.0001
RA_OF_ASC_NODE = 245.5964
ARG_OF_PERICENTER = 190.9331
MEAN_ANOMALY   = 169.1555

EPHEMERIS_TYPE = 0
CLASSIFICATION_TYPE = U
NORAD_CAT_ID   = 67437
ELEMENT_SET_NO = 999
REV_AT_EPOCH   = 171
BSTAR          = .24410401E-3
MEAN_MOTION_DOT = .148E-5
MEAN_MOTION_DDOT = 0

CCSDS_OMM_VERS = 2.0
CREATION_DATE  = 
ORIGINATOR     = 

OBJECT_NAME    = HULIANWANG DIGUI-140
OBJECT_ID      = 2026-007D
CENTER_NAME    = EARTH
REF_FRAME      = TEME
TIME_SYSTEM    = UTC
MEAN_ELEMENT_THEORY = SGP/SGP4

EPOCH          = 2026-01-25T02:39:12.492864
MEAN_MOTION    = 13.88269827
ECCENTRICITY   = .0003277
INCLINATION    = 50.0038
RA_OF_ASC_NODE = 248.7599
ARG_OF_PERICENTER = 277.0443
MEAN_ANOMALY   = 83.0082

EPHEMERIS_TYPE = 0
CLASSIFICATION_TYPE = U
NORAD_CAT_ID   = 67438
ELEMENT_SET_NO = 999
REV_AT_EPOCH   = 160
BSTAR          = .23232943E-3
MEAN_MOTION_DOT = .134E-5
MEAN_MOTION_DDOT = 0

CCSDS_OMM_VERS = 2.0
CREATION_DATE  = 
ORIGINATOR     = 

OBJECT_NAME    = HULIANWANG DIGUI-141
OBJECT_ID      = 2026-007E
CENTER_NAME    = EARTH
REF_FRAME      = TEME
TIME_SYSTEM    = UTC
MEAN_ELEMENT_THEORY = SGP/SGP4

EPOCH          = 2026-01-25T02:32:21.986592
MEAN_MOTION    = 13.89617410
ECCENTRICITY   = .00015362
INCLINATION    = 50.0075
RA_OF_ASC_NODE = 248.7193
ARG_OF_PERICENTER = 269.3855
MEAN_ANOMALY   = 90.6868

EPHEMERIS_TYPE = 0
CLASSIFICATION_TYPE = U
NORAD_CAT_ID   = 67439
ELEMENT_SET_NO = 999
REV_AT_EPOCH   = 160
BSTAR          = .21650445E-3
MEAN_MOTION_DOT = .121E-5
MEAN_MOTION_DDOT = 0

CCSDS_OMM_VERS = 2.0
CREATION_DATE  = 
ORIGINATOR     = 

OBJECT_NAME    = HULIANWANG DIGUI-142
OBJECT_ID      = 2026-007F
CENTER_NAME    = EARTH
REF_FRAME      = TEME
TIME_SYSTEM    = UTC
MEAN_ELEMENT_THEORY = SGP/SGP4

EPOCH          = 2026-01-25T21:29:34.673280
MEAN_MOTION    = 13.88974471
ECCENTRICITY   = .00009168
INCLINATION    = 50.0086
RA_OF_ASC_NODE = 245.5917
ARG_OF_PERICENTER = 166.9420
MEAN_ANOMALY   = 193.1502

EPHEMERIS_TYPE = 0
CLASSIFICATION_TYPE = U
NORAD_CAT_ID   = 67440
ELEMENT_SET_NO = 999
REV_AT_EPOCH   = 171
BSTAR          = .26126494E-4
MEAN_MOTION_DOT = -.114E-5
MEAN_MOTION_DDOT = 0

CCSDS_OMM_VERS = 2.0
CREATION_DATE  = 
ORIGINATOR     = 

OBJECT_NAME    = HULIANWANG DIGUI-143
OBJECT_ID      = 2026-007G
CENTER_NAME    = EARTH
REF_FRAME      = TEME
TIME_SYSTEM    = UTC
MEAN_ELEMENT_THEORY = SGP/SGP4

EPOCH          = 2026-01-25T23:11:26.576448
MEAN_MOTION    = 13.89125540
ECCENTRICITY   = .00002346
INCLINATION    = 50.0165
RA_OF_ASC_NODE = 245.2787
ARG_OF_PERICENTER = 5.0329
MEAN_ANOMALY   = 355.0571

EPHEMERIS_TYPE = 0
CLASSIFICATION_TYPE = U
NORAD_CAT_ID   = 67441
ELEMENT_SET_NO = 999
REV_AT_EPOCH   = 172
BSTAR          = .20991287E-3
MEAN_MOTION_DOT = .11E-5
MEAN_MOTION_DDOT = 0

