STARLINK-36515          
1 67430U 26005AC  26025.91668981 -.01560844  00000+0 -10903-1 0  9999
2 67430  43.0002 125.1697 0001239 280.1775 316.3073 15.76479170  3235
STARLINK-36443          
1 67431U 26005AD  26025.91668981 -.01477284  00000+0 -10301-1 0  9997
2 67431  43.0002 125.1542 0001380 280.7315 321.6568 15.76342341  3268
STARLINK-36460          
1 67432U 26005AE  26025.91668981 -.01640424  00000+0 -11329-1 0  9997
2 67432  43.0001 125.1495 0001329 273.6693 330.6469 15.76388522  3315
YAOGAN-50 01            
1 67433U 26006A   26025.95607244  .00000396  00000+0  18774-3 0  9996
2 67433 142.0305 248.4408 0000693 272.3103  87.7537 13.83250638  1733
CZ-6A R/B               
1 67434U 26006B   26025.59978700  .00001754  00000+0  20725-3 0  9993
2 67434 142.0433 253.5760 0202424 169.8106 190.6801 14.62271920  1769
HULIANWANG DIGUI-137    
1 67435U 26007A   26025.75476184  .00000097  00000+0  20067-3 0  9990
2 67435  50.0118 246.1588 0001349 228.2080 131.8703 13.88520819  1699
HULIANWANG DIGUI-138    
1 67436U 26007B   26025.97299112  .00000098  00000+0  20426-3 0  9999
2 67436  50.0120 245.3067 0002871 202.8451 157.2320 13.87767768  1723
HULIANWANG DIGUI-139    
1 67437U 26007C   26025.89974482  .00000148  00000+0  24410-3 0  9994
2 67437  50.0001 245.5964 0000565 190.9331 169.1555 13.88233005  1716
HULIANWANG DIGUI-140    
1 67438U 26007D   26025.11056126  .00000134  00000+0  23233-3 0  9993
2 67438  50.0038 248.7599 0003277 277.0443  83.0082 13.88269827  1608
HULIANWANG DIGUI-141    
1 67439U 26007E   26025.10581003  .00000121  00000+0  21650-3 0  9997
2 67439  50.0075 248.7193 0001536 269.3855  90.6868 13.89617410  1609
HULIANWANG DIGUI-142    
1 67440U 26007F   26025.89554020 -.00000114  00000+0  26126-4 0  9991
2 67440  50.0086 245.5917 0000916 166.9420 193.1502 13.88974471  1711
HULIANWANG DIGUI-143    
1 67441U 26007G   26025.96627982  .00000110  00000+0  20991-3 0  9996
2 67441  50.0165 245.2787 0000234   5.0329 355.0571 13.89125540  1728
